{
    "links": {
        "self": "http://www.neowsapp.com/rest/v1/neo/3989264?api_key=iIulBulltgU6a56xZRHN4H3l9WmuAYTsLGpBGhQ2"
    },
    "id": "3989264",
    "neo_reference_id": "3989264",
    "name": "(2020 BQ11)",
    "designation": "2020 BQ11",
    "nasa_jpl_url": "http://ssd.jpl.nasa.gov/sbdb.cgi?sstr=3989264",
    "absolute_magnitude_h": 24.438,
    "estimated_diameter": {
        "kilometers": {
            "estimated_diameter_min": 0.0344314234,
            "estimated_diameter_max": 0.0769910032
        },
        "meters": {
            "estimated_diameter_min": 34.431423379,
            "estimated_diameter_max": 76.9910032374
        },
        "miles": {
            "estimated_diameter_min": 0.021394688,
            "estimated_diameter_max": 0.0478399767
        },
        "feet": {
            "estimated_diameter_min": 112.9639910786,
            "estimated_diameter_max": 252.5951630614
        }
    },
    "is_potentially_hazardous_asteroid": false,
    "close_approach_data": [
        {
            "close_approach_date": "2020-02-08",
            "close_approach_date_full": "2020-Feb-08 17:06",
            "epoch_date_close_approach": 1581181560000,
            "relative_velocity": {
                "kilometers_per_second": "21.2600888773",
                "kilometers_per_hour": "76536.3199584179",
                "miles_per_hour": "47556.692809718"
            },
            "miss_distance": {
                "astronomical": "0.0361363534",
                "lunar": "14.0570414726",
                "kilometers": "5405921.498207258",
                "miles": "3359083.8561978404"
            },
            "orbiting_body": "Earth"
        }
    ],
    "orbital_data": {
        "orbit_id": "2",
        "orbit_determination_date": "2020-02-03 05:40:21",
        "first_observation_date": "2020-01-22",
        "last_observation_date": "2020-02-02",
        "data_arc_in_days": 11,
        "observations_used": 25,
        "orbit_uncertainty": "9",
        "minimum_orbit_intersection": ".0215693",
        "jupiter_tisserand_invariant": "3.572",
        "epoch_osculation": "2458872.5",
        "eccentricity": ".6832862147511417",
        "semi_major_axis": "1.93971108712029",
        "inclination": "4.259696417741888",
        "ascending_node_longitude": "157.7940619469204",
        "orbital_period": "986.7428749288255",
        "perihelion_distance": ".614333240691045",
        "perihelion_argument": "68.72046365496051",
        "aphelion_distance": "3.265088933549535",
        "perihelion_time": "2458934.092695720147",
        "mean_anomaly": "337.528725038068",
        "mean_motion": ".3648366855711698",
        "equinox": "J2000",
        "orbit_class": {
            "orbit_class_type": "APO",
            "orbit_class_description": "Near-Earth asteroid orbits which cross the Earth’s orbit similar to that of 1862 Apollo",
            "orbit_class_range": "a (semi-major axis) > 1.0 AU; q (perihelion) < 1.017 AU"
        }
    },
    "is_sentry_object": false
}